NORAD_CAT_ID,OBJECT_NAME,OBJECT_TYPE,EPOCH,MEAN_MOTION,ECCENTRICITY,INCLINATION,RA_OF_ASC_NODE,ARG_OF_PERICENTER,MEAN_ANOMALY,BSTAR,MEAN_MOTION_DOT,MEAN_MOTION_DDOT,TLE_LINE0,TLE_LINE1,TLE_LINE2,SEMIMAJOR_AXIS,PERIOD,APOGEE,PERIGEE,DECAYED
51129.0,STARLINK-3396,PAYLOAD,2022-02-07 02:33:57,15.85034649,0.00019,53.2215,178.9869,50.5406,309.5787,-0.00062433,-0.00148177,0.0,0 STARLINK-3396,1 51129U 22005AB  22038.10691532 -.00148177  00000-0 -62433-3 0  9990,2 51129  53.2215 178.9869 0001900  50.5406 309.5787 15.85034649  4330,6694.364000000001,90.85,317.501,314.957,0.0
51129.0,STARLINK-3396,PAYLOAD,2022-02-07 13:09:45,15.84511992,0.0001618,53.2214,176.7663,39.292,320.8222,-0.0013728,-0.00311097,0.0,0 STARLINK-3396,1 51129U 22005AB  22038.54843935 -.00311097  00000-0 -13728-2 0  9999,2 51129  53.2214 176.7663 0001618  39.2920 320.8222 15.84511992  4406,6695.8359999999975,90.88,318.785,316.618,0.0
51129.0,STARLINK-3396,PAYLOAD,2022-02-07 14:40:36,15.84399765,0.0002171,53.2213,176.4484,36.8553,323.2621,-0.0014484,-0.00325935,0.0,0 STARLINK-3396,1 51129U 22005AB  22038.61153697 -.00325935  00000-0 -14484-2 0  9992,2 51129  53.2213 176.4484 0002171  36.8553 323.2621 15.84399765  4416,6696.151999999999,90.886,319.471,316.564,0.0
51129.0,STARLINK-3396,PAYLOAD,2022-02-09 10:37:18,15.82040834,0.0001431,53.221,167.2595,50.6259,309.4892,-0.0015429,-0.00310948,0.0,0 STARLINK-3396,1 51129U 22005AB  22040.44257507 -.00310948  00000-0 -15429-2 0  9999,2 51129  53.2210 167.2595 0001431  50.6259 309.4892 15.82040834  4705,6702.807,91.022,325.631,323.713,0.0
51129.0,STARLINK-3396,PAYLOAD,2022-02-09 13:39:17,15.81905473,0.0001277,53.221,166.6261,38.2351,321.8763,-0.0014679,-0.00294541,0.0,0 STARLINK-3396,1 51129U 22005AB  22040.56895014 -.00294541  00000-0 -14679-2 0  9999,2 51129  53.2210 166.6261 0001277  38.2351 321.8763 15.81905473  3602,6703.189,91.029,325.91,324.198,0.0
51129.0,STARLINK-3396,PAYLOAD,2022-02-09 16:41:18,15.81692744,0.000143,53.221,165.9931,44.7379,315.3761,-0.0016194,-0.00320717,0.0,0 STARLINK-3396,1 51129U 22005AB  22040.69535361 -.00320717  00000-0 -16194-2 0  9998,2 51129  53.2210 165.9931 0001430  44.7379 315.3761 15.81692744  4747,6703.79,91.042,326.6140000000001,324.697,0.0
51129.0,STARLINK-3396,PAYLOAD,2022-02-09 21:14:20,15.81516325,8.47e-05,53.2209,165.0436,38.7901,321.3184,-0.0014252,-0.00281258,0.0,0 STARLINK-3396,1 51129U 22005AB  22040.88495621 -.00281258  00000-0 -14252-2 0  9992,2 51129  53.2209 165.0436 0000847  38.7901 321.3184 15.81516325  4770,6704.2890000000025,91.052,326.722,325.586,0.0
51129.0,STARLINK-3396,PAYLOAD,2022-02-10 12:24:47,15.8067237,0.0001743,53.2208,161.8801,24.7303,335.3803,-0.0015855,-0.00300237,0.0,0 STARLINK-3396,1 51129U 22005AB  22041.51721467 -.00300237  00000-0 -15855-2 0  9992,2 51129  53.2208 161.8801 0001743  24.7303 335.3803 15.80672370  4872,6706.675,91.1,329.709,327.371,0.0
51129.0,STARLINK-3396,PAYLOAD,2022-02-10 13:55:52,15.8056089,0.0002031,53.2207,161.5635,36.2637,323.8524,-0.001664,-0.00313021,0.0,0 STARLINK-3396,1 51129U 22005AB  22041.58047261 -.00313021  00000-0 -16640-2 0  9990,2 51129  53.2207 161.5635 0002031  36.2637 323.8524 15.80560890  3764,6706.99,91.107,330.218,327.493,0.0
51129.0,STARLINK-3396,PAYLOAD,2022-02-10 20:00:13,15.80252621,0.0001388,53.2209,160.2992,32.0437,328.0671,-0.0016159,-0.00300109,0.0,0 STARLINK-3396,1 51129U 22005AB  22041.83348423 -.00300109  00000-0 -16159-2 0  9990,2 51129  53.2209 160.2992 0001388  32.0437 328.0671 15.80252621  4923,6707.863,91.125,330.659,328.797,0.0
51129.0,STARLINK-3396,PAYLOAD,2022-02-10 21:31:18,15.80177747,0.0001582,53.2209,159.9831,34.6678,325.4448,-0.001593,-0.00295035,0.0,0 STARLINK-3396,1 51129U 22005AB  22041.89674480 -.00295035  00000-0 -15930-2 0  9998,2 51129  53.2209 159.9831 0001582  34.6678 325.4448 15.80177747  3816,6708.075,91.129,331.001,328.8780000000001,0.0
51129.0,STARLINK-3396,PAYLOAD,2022-02-11 00:33:31,15.80011496,0.0002137,53.2211,159.3515,37.5782,322.539,-0.0015744,-0.00289605,0.0,0 STARLINK-3396,1 51129U 22005AB  22042.02328070 -.00289605  00000-0 -15744-2 0  9994,2 51129  53.2211 159.3515 0002137  37.5782 322.5390 15.80011496  4955,6708.545,91.139,331.844,328.976,0.0
51129.0,STARLINK-3396,PAYLOAD,2022-02-11 11:11:21,15.79549038,9.1e-05,53.2212,157.1388,25.3192,334.7875,-0.0012669,-0.00229813,0.0,0 STARLINK-3396,1 51129U 22005AB  22042.46622552 -.00229813  00000-0 -12669-2 0  9992,2 51129  53.2212 157.1388 0000910  25.3192 334.7875 15.79549038  5025,6709.854,91.165,332.33,331.1090000000001,0.0
51129.0,STARLINK-3396,PAYLOAD,2022-02-11 14:13:39,15.79279113,0.000169,53.2212,156.5078,51.9187,308.1988,-0.0017241,-0.00306045,0.0,0 STARLINK-3396,1 51129U 22005AB  22042.59281822 -.00306045  00000-0 -17241-2 0  9991,2 51129  53.2212 156.5078 0001690  51.9187 308.1988 15.79279113  3920,6710.619000000002,91.181,333.61800000000005,331.35,0.0
51129.0,STARLINK-3396,PAYLOAD,2022-02-11 18:47:09,15.78997305,0.0001424,53.2211,155.5606,37.9975,322.1147,-0.0017838,-0.00312349,0.0,0 STARLINK-3396,1 51129U 22005AB  22042.78275219 -.00312349  00000-0 -17838-2 0  9991,2 51129  53.2211 155.5606 0001424  37.9975 322.1147 15.78997305  5079,6711.417,91.197,334.23800000000006,332.327,0.0
51129.0,STARLINK-3396,PAYLOAD,2022-02-11 21:49:30,15.7884214,0.0001511,53.2211,154.929,27.252,332.8582,-0.0017395,-0.00302812,0.0,0 STARLINK-3396,1 51129U 22005AB  22042.90937715 -.00302812  00000-0 -17395-2 0  9993,2 51129  53.2211 154.9290 0001511  27.2520 332.8582 15.78842140  3970,6711.857,91.206,334.736,332.708,0.0
51129.0,STARLINK-3396,PAYLOAD,2022-02-12 00:51:51,15.78728665,0.0002021,53.221,154.298,27.6488,332.4641,-0.0015393,-0.00267774,0.0,0 STARLINK-3396,1 51129U 22005AB  22043.03600829 -.00267774  00000-0 -15393-2 0  9994,2 51129  53.2210 154.2980 0002021  27.6488 332.4641 15.78728665  5117,6712.179,91.213,335.4,332.6869999999999,0.0
51129.0,STARLINK-3396,PAYLOAD,2022-02-12 13:01:29,15.78038094,0.0001904,53.2211,151.7729,27.09800000000001,333.0141,-0.0017327,-0.00291304,0.0,0 STARLINK-3396,1 51129U 22005AB  22043.54269744 -.00291304  00000-0 -17327-2 0  9992,2 51129  53.2211 151.7729 0001904  27.0980 333.0141 15.78038094  5191,6714.137,91.253,337.28,334.723,0.0
51129.0,STARLINK-3396,PAYLOAD,2022-02-16 12:00:02,15.7328198,0.0001926,53.2205,132.1385,31.1869,101.6973,-0.00070133,-0.00098257,0.0,0 STARLINK-3396,1 51129U 22005AB  22047.50002315 -.00098257  00000-0 -70133-3 0  9998,2 51129  53.2205 132.1385 0001926  31.1869 101.6973 15.73281980  5822,6727.661,91.528,350.82199999999995,348.231,0.0
51129.0,STARLINK-3396,PAYLOAD,2022-02-16 22:00:00,15.73204795,0.0001893,53.2201,130.0759,34.0346,300.0069,-0.00020922,-0.00029887,0.0,0 STARLINK-3396,1 51129U 22005AB  22047.91667824 -.00029887  00000-0 -20922-3 0  9999,2 51129  53.2201 130.0759 0001893  34.0346 300.0069 15.73204795  3744,6727.882,91.533,351.02,348.473,0.0
51129.0,STARLINK-3396,PAYLOAD,2022-02-17 06:00:00,15.73199143,0.0001886,53.2204,128.4259,39.4901,23.4607,0.00038226,0.00053368,0.0,0 STARLINK-3396,1 51129U 22005AB  22048.25001157  .00053368  00000-0  38226-3 0  9993,2 51129  53.2204 128.4259 0001886  39.4901  23.4607 15.73199143  5938,6727.898,91.533,351.031,348.494,0.0
51129.0,STARLINK-3396,PAYLOAD,2022-02-17 14:00:01,15.73241074,0.0002093,53.2205,126.7786,32.5408,119.3548,-0.00014036,-0.00020309,0.0,0 STARLINK-3396,1 51129U 22005AB  22048.58334491 -.00020309  00000-0 -14036-3 0  9993,2 51129  53.2205 126.7786 0002093  32.5408 119.3548 15.73241074  3705,6727.778,91.531,351.051,348.235,0.0
51129.0,STARLINK-3396,PAYLOAD,2022-02-17 22:00:00,15.73213559,0.0001888,53.2203,125.1278,27.1785,213.6822,-0.00017286,-0.00024825,0.0,0 STARLINK-3396,1 51129U 22005AB  22048.91667824 -.00024825  00000-0 -17286-3 0  9996,2 51129  53.2203 125.1278 0001888  27.1785 213.6822 15.73213559  6041,6727.857,91.532,350.992,348.451,0.0
51129.0,STARLINK-3396,PAYLOAD,2022-02-18 14:00:01,15.73164798,0.0002141,53.2198,121.8307,27.127,31.5865,-0.0003268,-0.0004617,0.0,0 STARLINK-3396,1 51129U 22005AB  22049.58334491 -.00046170  00000-0 -32680-3 0  9993,2 51129  53.2198 121.8307 0002141  27.1270  31.5865 15.73164798  3739,6727.996,91.535,351.301,348.42,0.0
51129.0,STARLINK-3396,PAYLOAD,2022-02-18 20:00:01,15.73142647,0.0002132,53.2191,120.5926,30.7129,4.6601,9.2608e-06,6.76e-06,0.0,0 STARLINK-3396,1 51129U 22005AB  22049.83334491  .00000676  00000-0  92608-5 0  9998,2 51129  53.2191 120.5926 0002132  30.7129   4.6601 15.73142647  3703,6728.059,91.537,351.358,348.48900000000015,0.0
51129.0,STARLINK-3396,PAYLOAD,2022-02-19 04:00:00,15.73144533,0.0001987,53.2194,118.942,36.2577,87.9738,0.0004401,0.00061453,0.0,0 STARLINK-3396,1 51129U 22005AB  22050.16667824  .00061453  00000-0  44010-3 0  9997,2 51129  53.2194 118.9420 0001987  36.2577  87.9738 15.73144533  6244,6728.053000000001,91.536,351.255,348.581,0.0
51129.0,STARLINK-3396,PAYLOAD,2022-02-19 14:00:01,15.73168928,0.0002315,53.2196,116.8827,31.9011,293.4568,0.00052962,0.00074273,0.0,0 STARLINK-3396,1 51129U 22005AB  22050.58334491  .00074273  00000-0  52962-3 0  9993,2 51129  53.2196 116.8827 0002315  31.9011 293.4568 15.73168928  3724,6727.984,91.535,351.406,348.291,0.0
51129.0,STARLINK-3396,PAYLOAD,2022-02-19 20:00:01,15.73237892,0.0002237,53.2194,115.6444,31.6182,270.4324,6.2049e-05,8.109999999999999e-05,0.0,0 STARLINK-3396,1 51129U 22005AB  22050.83334491  .00008110  00000-0  62049-4 0  9996,2 51129  53.2194 115.6444 0002237  31.6182 270.4324 15.73237892  3736,6727.7869999999975,91.531,351.157,348.147,0.0
51129.0,STARLINK-3396,PAYLOAD,2022-02-20 06:00:00,15.73288161,0.0002139,53.2195,113.5819,32.8866,110.3756,-0.00055343,-0.00077877,0.0,0 STARLINK-3396,1 51129U 22005AB  22051.25001157 -.00077877  00000-0 -55343-3 0  9999,2 51129  53.2195 113.5819 0002139  32.8866 110.3756 15.73288161  6417,6727.644,91.528,350.9480000000001,348.07,0.0
